   Observers K. <a href="https://en.wikipedia.org/wiki/Korado_Korlevi%C4%87">Korlevi&#263;</a>, E. <a href="http://ssd.jpl.nasa.gov/sbdb.cgi?ID=a0007258">Pettarin</a>. Measurer E. Pettarin. 1.0-m f/2.9
   reflector + CCD.
<a name="elements"></a>
<a href="https://www.projectpluto.com/mpec_xpl.htm#elems"><b>Orbital elements:  2019 CS</b></a>
   Perihelion 2019 Apr 7.757391 +/- 0.000968 TT = 18:10:38 (JD 2458581.257391)
Epoch 2019 Feb 11.0 TT = JDT 2458525.5   Earth MOID: 0.0479   Ma: 0.0661
M 336.13410 +/- 0.0033              (J2000 ecliptic)          <a href="https://www.projectpluto.com/find_orb.htm">Find_Orb</a>
n   0.42803108 +/- 5.29e-5          Peri.   72.88882 +/- 0.0012
a   1.74375650 +/- 0.000144         Node   131.31898 +/- 0.00032
e   0.4341772 +/- 4.25e-5           Incl.    3.40953 +/- 0.00027
P   2.30/841.04d           <a title="Size is probably 70 to 150 meters"
href="http://www.minorplanetcenter.net/iau/lists/Sizes.html">H</a> 23.0   G  0.15   U  6.1  
q 0.98665707 +/- 8.33e-6    Q 2.50085592 +/- 0.00028
From 34 observations 2019 Jan. 3-Feb. 11; mean residual 0".59
</pre> <!-- State vector (heliocentric equatorial J2000): -->
<!--   -0.943465977542  +0.615932047686  +0.283980549679 AU -->
<!--   -5.839260500402 -16.390723375619  -6.073141654872 mAU/day -->
<!-- MOIDs: Me  0.5555 Ve  0.2649 Ea  0.0479 Ma  0.0661 -->
<!-- MOIDs: Ju  2.4566 Sa  6.7714 Ur 17.2132 Ne 27.3252 -->
<!-- Elements written: 24 Feb 2019 20:34:30 (JD 2458539.357292) -->
<!-- Full range of obs: 2019 Jan. 3-Feb. 11 (34 observations) -->
<!-- Find_Orb ver: Aug 25 2018 21:42:50 -->
<!-- Perturbers: 00000408 (Sun/Earth/Moon);  not using JPL DE -->
<!-- Tisserand relative to Earth: 2.94837 -->
<!-- Earth encounter velocity 6.8164 km/s -->
<!-- Barbee-style encounter velocity: 6.5724 km/s -->
<!-- Diameter 105.1 meters (assuming 10% albedo) -->
<!-- Score: 1.494096 -->
<!--  $Name=2019%20CS  $Ty=2019  $Tm=04  $Td=07.757391  $MA=336.13410 -->
<!--  $ecc=0.4341773  $Eqnx=2000. -->
<!--  $a=1.7437565  $Peri=72.88883  $Node=131.31898  $Incl=3.40953 -->
<!--  $EpJD=2458525.500  $q=0.986657  $T=2458581.257391  $H=23.0 -->
<!-- Sigmas avail: 1 -->
<pre><b><a name="residuals"></a><a href="https://www.projectpluto.com/mpec_xpl.htm#resids">Residuals in arcseconds:</a> </b>
<a name="r001"></a><a href="#o001">190103</a> <a href="#stn_F51">F51</a>  .12+  .01+    <a name="r013"></a><a href="#o013">190205</a> <a href="#stn_807">807</a>  .81-  .17-    <a name="r025"></a><a href="#o025">190207</a> <a href="#stn_033">033</a>  1.1-  .07-    
<a name="r002"></a><a href="#o002">190103</a> <a href="#stn_F51">F51</a>  .04-  .15-    <a name="r014"></a><a href="#o014">190205</a> <a href="#stn_807">807</a>  .47-  .20+    <a name="r026"></a><a href="#o026">190207</a> <a href="#stn_033">033</a>  1.0-  .17+    
<a name="r003"></a><a href="#o003">190103</a> <a href="#stn_F51">F51</a>  .07-  .15+    <a name="r015"></a><a href="#o015">190205</a> <a href="#stn_807">807</a>  .66-  .05-    <a name="r027"></a><a href="#o027">190207</a> <a href="#stn_033">033</a>  1.3-  .37+    
<a name="r004"></a><a href="#o004">190204</a> <a href="#stn_F51">F51</a>  .52-  .04+    <a name="r016"></a><a href="#o016">190205</a> <a href="#stn_568">568</a>  .66-  .01-    <a name="r028"></a><a href="#o028">190207</a> <a href="#stn_K88">K88</a>  .23+  .16-    
<a name="r005"></a><a href="#o005">190204</a> <a href="#stn_F51">F51</a>  .57-  .09+    <a name="r017"></a><a href="#o017">190205</a> <a href="#stn_568">568</a>  .68-  .02-    <a name="r029"></a><a href="#o029">190207</a> <a href="#stn_K88">K88</a>  .49-  .26+    
<a name="r006"></a><a href="#o006">190204</a> <a href="#stn_F51">F51</a>  .57-  .03+    <a name="r018"></a><a href="#o018">190205</a> <a href="#stn_568">568</a>  .68-  .01-    <a name="r030"></a><a href="#o030">190207</a> <a href="#stn_K88">K88</a>  .07-  .68+    
<a name="r007"></a><a href="#o007">190204</a> <a href="#stn_F51">F51</a>  .53-  .01+    <a name="r019"></a><a href="#o019">190206</a> <a href="#stn_K88">K88</a>  .29-  .32+    <a name="r031"></a><a href="#o031">190211</a> <a href="#stn_G96">G96</a>  1.7-  .19-    
<a name="r008"></a><a href="#o008">190204</a> <a href="#stn_K88">K88</a>  1.4-  .15-    <a name="r020"></a><a href="#o020">190206</a> <a href="#stn_K88">K88</a>  .66-  .19+    <a name="r032"></a><a href="#o032">190211</a> <a href="#stn_G96">G96</a>  1.3-  .06-    
<a name="r009"></a><a href="#o009">190204</a> <a href="#stn_033">033</a>  .78-  .24+    <a name="r021"></a><a href="#o021">190206</a> <a href="#stn_K88">K88</a>  .15-  .07+    <a name="r033"></a><a href="#o033">190211</a> <a href="#stn_G96">G96</a>  1.4-  .32-    
<a name="r010"></a><a href="#o010">190204</a> <a href="#stn_033">033</a>  .15-  .16-    <a name="r022"></a><a href="#o022">190206</a> <a href="#stn_L01">L01</a>  .04+  .23-    <a name="r034"></a><a href="#o034">190211</a> <a href="#stn_G96">G96</a>  1.4-  .31+    
<a name="r011"></a><a href="#o011">190204</a> <a href="#stn_K88">K88</a>  .94-  .73+    <a name="r023"></a><a href="#o023">190206</a> <a href="#stn_L01">L01</a>  .27-  .45+    
<a name="r012"></a><a href="#o012">190205</a> <a href="#stn_033">033</a>  .50-  .05-    <a name="r024"></a><a href="#o024">190207</a> <a href="#stn_033">033</a>  .73-  .21+    

<a name="eph"></a><a href="https://www.projectpluto.com/mpec_xpl.htm#ephems"><b>Ephemerides for Mountainville Observatory, Alpine:</b></a>
Date (UTC) HH:MM   RA              Dec         delta   r     elong  mag  '/hr    PA  
---- -- -- -----  -------------   -----------  ------ ------ -----  --- ------ ------
2019 02 24 20:35  11 50 04.467   +17 30 06.17  .10899 1.0921 158.9 19.4   4.60  75.7 
</pre></body></html>
